ALOS (DAICHI)           
1 28931U 06002A   23325.46623686  .00001295  00000+0  25163-3 0  9993
2 28931  98.0100 278.5102 0002410  87.2418 272.9061 14.64764630950412
